STARLINK-37073
1 68151U 26049K   26090.81486114 -.00486097  00000+0 -28330-2 0  9995
2 68151  97.2834 111.1885 0002233 157.5056 202.6310 15.79600058  2906
